[{"OBJECT_NAME":"STARLINK-35771","OBJECT_ID":"2025-303J","EPOCH":"2026-03-09T23:12:36.519840","MEAN_MOTION":15.27631948,"ECCENTRICITY":7.303e-5,"INCLINATION":42.9981,"RA_OF_ASC_NODE":309.4879,"ARG_OF_PERICENTER":129.4753,"MEAN_ANOMALY":230.6163,"EPHEMERIS_TYPE":0,"CLASSIFICATION_TYPE":"U","NORAD_CAT_ID":67171,"ELEMENT_SET_NO":999,"REV_AT_EPOCH":1277,"BSTAR":0.0011827667,"MEAN_MOTION_DOT":0.0003248,"MEAN_MOTION_DDOT":0},{"OBJECT_NAME":"CZ-6A DEB","OBJECT_ID":"2023-168D","EPOCH":"2026-03-09T19:03:52.964928","MEAN_MOTION":15.28240044,"ECCENTRICITY":0.00013417,"INCLINATION":97.7802,"RA_OF_ASC_NODE":98.3362,"ARG_OF_PERICENTER":174.0661,"MEAN_ANOMALY":186.0594,"EPHEMERIS_TYPE":0,"CLASSIFICATION_TYPE":"U","NORAD_CAT_ID":58202,"ELEMENT_SET_NO":999,"REV_AT_EPOCH":12922,"BSTAR":0.0014474773,"MEAN_MOTION_DOT":0.00039923,"MEAN_MOTION_DDOT":0}]
